NORAD_CAT_ID,OBJECT_NAME,OBJECT_TYPE,EPOCH,MEAN_MOTION,ECCENTRICITY,INCLINATION,RA_OF_ASC_NODE,ARG_OF_PERICENTER,MEAN_ANOMALY,BSTAR,MEAN_MOTION_DOT,MEAN_MOTION_DDOT,TLE_LINE0,TLE_LINE1,TLE_LINE2,SEMIMAJOR_AXIS,PERIOD,APOGEE,PERIGEE,DECAYED
52307.0,STARLINK-3755,PAYLOAD,2024-01-05 10:27:08,15.08837398,0.0001566,53.2166,64.6666,72.4043,287.712,6.8927e-05,8.09e-06,0.0,0 STARLINK-3755,1 52307U 22041AY  24005.43551065  .00000809  00000-0  68927-4 0  9999,2 52307  53.2166  64.6666 0001566  72.4043 287.7120 15.08837398 94602,6917.888,95.438,540.837,538.67,0.0
52307.0,STARLINK-3755,PAYLOAD,2024-01-06 03:56:22,15.08840254,0.0001563,53.2176,61.3983,85.0635,275.0535,8.5576e-06,-1.52e-06,0.0,0 STARLINK-3755,1 52307U 22041AY  24006.16415037 -.00000152  00000-0  85576-5 0  9990,2 52307  53.2176  61.3983 0001563  85.0635 275.0535 15.08840254 95924,6917.88,95.438,540.826,538.663,0.0
52307.0,STARLINK-3755,PAYLOAD,2024-01-06 10:17:54,15.08843132,0.0001595,53.2174,60.2078,93.1727,266.9448,3.0325e-05,1.95e-06,0.0,0 STARLINK-3755,1 52307U 22041AY  24006.42910737  .00000195  00000-0  30325-4 0  9993,2 52307  53.2174  60.2078 0001595  93.1727 266.9448 15.08843132 94752,6917.871,95.437,540.839,538.632,0.0
52307.0,STARLINK-3755,PAYLOAD,2024-01-07 08:33:19,15.08836775,0.0001688,53.2182,56.046,102.7054,257.4127,0.00010121,1.323e-05,0.0,0 STARLINK-3755,1 52307U 22041AY  24007.35647039  .00001323  00000-0  10121-3 0  9993,2 52307  53.2182  56.0460 0001688 102.7054 257.4127 15.08836775 96107,6917.89,95.438,540.923,538.588,0.0
52307.0,STARLINK-3755,PAYLOAD,2024-01-08 11:34:52,15.08838859,0.000145,53.2185,50.9874,86.4813,273.6345,5.0888e-05,5.22e-06,0.0,0 STARLINK-3755,1 52307U 22041AY  24008.48255313  .00000522  00000-0  50888-4 0  9993,2 52307  53.2185  50.9874 0001450  86.4813 273.6345 15.08838859 96275,6917.884,95.438,540.752,538.746,0.0
52307.0,STARLINK-3755,PAYLOAD,2024-01-09 11:25:38,15.08850145,0.000148,53.2181,46.5265,86.4374,273.6788,0.00013346,1.837e-05,0.0,0 STARLINK-3755,1 52307U 22041AY  24009.47614515  .00001837  00000-0  13346-3 0  9993,2 52307  53.2181  46.5265 0001480  86.4374 273.6788 15.08850145 96421,6917.849,95.437,540.738,538.691,0.0
52307.0,STARLINK-3755,PAYLOAD,2024-01-10 11:16:26,15.08843255,0.000159,53.2184,42.0626,78.5631,281.554,9.0976e-05,1.16e-05,0.0,0 STARLINK-3755,1 52307U 22041AY  24010.46975211  .00001160  00000-0  90976-4 0  9991,2 52307  53.2184  42.0626 0001590  78.5631 281.5540 15.08843255 96570,6917.87,95.437,540.835,538.635,0.0
52307.0,STARLINK-3755,PAYLOAD,2024-01-11 01:34:55,15.08831029,0.0001396,53.2179,39.3887,89.3689,270.7463,0.00010844,1.438e-05,0.0,0 STARLINK-3755,1 52307U 22041AY  24011.06591857  .00001438  00000-0  10844-3 0  9991,2 52307  53.2179  39.3887 0001396  89.3689 270.7463 15.08831029 96669,6917.908,95.438,540.739,538.807,0.0
52307.0,STARLINK-3755,PAYLOAD,2024-01-11 07:56:27,15.08846756,0.0001527,53.2175,38.2003,104.7084,255.4078,1.7291e-06,-2.6e-06,0.0,0 STARLINK-3755,1 52307U 22041AY  24011.33087185 -.00000260  00000-0  17291-5 0  9993,2 52307  53.2175  38.2003 0001527 104.7084 255.4078 15.08846756 96700,6917.86,95.437,540.781,538.668,0.0
52307.0,STARLINK-3755,PAYLOAD,2024-01-12 07:47:14,15.08844281,0.0001546,53.2162,33.7407,97.5037,262.6131,0.00011172,1.491e-05,0.0,0 STARLINK-3755,1 52307U 22041AY  24012.32447402  .00001491  00000-0  11172-3 0  9991,2 52307  53.2162  33.7407 0001546  97.5037 262.6131 15.08844281 96859,6917.867,95.437,540.802,538.663,0.0
52307.0,STARLINK-3755,PAYLOAD,2024-01-13 04:27:15,15.08835466,0.0001641,53.2157,29.8756,83.375,276.7429,3.4229e-05,2.57e-06,0.0,0 STARLINK-3755,1 52307U 22041AY  24013.18560140  .00000257  00000-0  34229-4 0  9999,2 52307  53.2157  29.8756 0001641  83.3750 276.7429 15.08835466 96982,6917.894,95.438,540.894,538.624,0.0
52307.0,STARLINK-3755,PAYLOAD,2024-01-13 07:38:02,15.08838327,0.0001622,53.2169,29.2808,91.6056,268.5122,5.5968e-05,6.03e-06,0.0,0 STARLINK-3755,1 52307U 22041AY  24013.31807946  .00000603  00000-0  55968-4 0  9990,2 52307  53.2169  29.2808 0001622  91.6056 268.5122 15.08838327 95793,6917.886,95.438,540.873,538.628,0.0
52307.0,STARLINK-3755,PAYLOAD,2024-01-14 10:39:34,15.08847766,0.0001702,53.2166,24.2227,110.6012,249.5163,0.00012193,1.653e-05,0.0,0 STARLINK-3755,1 52307U 22041AY  24014.44415212  .00001653  00000-0  12193-3 0  9994,2 52307  53.2166  24.2227 0001702 110.6012 249.5163 15.08847766 97178,6917.857,95.437,540.899,538.544,0.0
52307.0,STARLINK-3755,PAYLOAD,2024-01-15 04:08:49,15.08845261,0.0001543,53.2165,20.9456,106.946,253.1701,8.5832e-05,1.078e-05,0.0,0 STARLINK-3755,1 52307U 22041AY  24015.17279667  .00001078  00000-0  85832-4 0  9999,2 52307  53.2165  20.9456 0001543 106.9460 253.1701 15.08845261 97281,6917.864,95.437,540.797,538.662,0.0
52307.0,STARLINK-3755,PAYLOAD,2024-01-15 10:30:21,15.08854467,0.0001711,53.2165,19.7566,116.8494,243.2674,0.00021729,3.173e-05,0.0,0 STARLINK-3755,1 52307U 22041AY  24015.43774917  .00003173  00000-0  21729-3 0  9998,2 52307  53.2165  19.7566 0001711 116.8494 243.2674 15.08854467 97325,6917.836,95.437,540.885,538.518,0.0
52307.0,STARLINK-3755,PAYLOAD,2024-01-16 02:24:14,15.08829731,0.000156,53.2172,16.7914,81.7763,278.3406,-0.00014832,-2.647e-05,0.0,0 STARLINK-3755,1 52307U 22041AY  24016.10016685 -.00002647  00000-0 -14832-3 0  9998,2 52307  53.2172  16.7914 0001560  81.7763 278.3406 15.08829731 97427,6917.912,95.438,540.856,538.698,0.0
52307.0,STARLINK-3755,PAYLOAD,2024-01-16 08:45:46,15.08833054,0.0001533,53.2166,15.6039,74.9357,285.1804,-8.1508e-05,-1.585e-05,0.0,0 STARLINK-3755,1 52307U 22041AY  24016.36512433 -.00001585  00000-0 -81508-4 0  9993,2 52307  53.2166  15.6039 0001533  74.9357 285.1804 15.08833054 96250,6917.902,95.438,540.827,538.706,0.0
52307.0,STARLINK-3755,PAYLOAD,2024-01-16 18:18:05,15.08830107,0.0001485,53.217,13.8188,84.6316,275.4845,2.24e-05,6.8e-07,0.0,0 STARLINK-3755,1 52307U 22041AY  24016.76256736  .00000068  00000-0  22400-4 0  9997,2 52307  53.2170  13.8188 0001485  84.6316 275.4845 15.08830107 96319,6917.911,95.438,540.803,538.748,0.0
52307.0,STARLINK-3755,PAYLOAD,2024-01-17 03:50:24,15.08837335,0.0001535,53.2171,12.0345,77.4306,282.6858,2.5087e-05,1.11e-06,0.0,0 STARLINK-3755,1 52307U 22041AY  24017.16000593  .00000111  00000-0  25087-4 0  9993,2 52307  53.2171  12.0345 0001535  77.4306 282.6858 15.08837335 97585,6917.889,95.438,540.815,538.692,0.0
52307.0,STARLINK-3755,PAYLOAD,2024-01-17 07:01:10,15.08841847,0.0001509,53.2175,11.4406,85.0703,275.0461,0.0001121,1.497e-05,0.0,0 STARLINK-3755,1 52307U 22041AY  24017.29248407  .00001497  00000-0  11210-3 0  9995,2 52307  53.2175  11.4406 0001509  85.0703 275.0461 15.08841847 96394,6917.875,95.437,540.784,538.696,0.0
52307.0,STARLINK-3755,PAYLOAD,2024-01-18 03:41:09,15.08866925,0.000125,53.2171,7.5724,121.9042,238.2072,0.00053305,8.212e-05,0.0,0 STARLINK-3755,1 52307U 22041AY  24018.15358074  .00008212  00000-0  53305-3 0  9996,2 52307  53.2171   7.5724 0001250 121.9042 238.2072 15.08866925 97730,6917.798,95.436,540.528,538.798,0.0
52307.0,STARLINK-3755,PAYLOAD,2024-01-18 06:51:57,15.0882337,0.0001236,53.2175,6.9779,81.2046,278.9086,-0.00017302,-3.039e-05,0.0,0 STARLINK-3755,1 52307U 22041AY  24018.28607905 -.00003039  00000-0 -17302-3 0  9991,2 52307  53.2175   6.9779 0001236  81.2046 278.9086 15.08823370 97758,6917.931,95.439,540.651,538.941,0.0
52307.0,STARLINK-3755,PAYLOAD,2024-01-18 22:45:48,15.08827437,0.0001336,53.2181,4.0035,97.3241,262.7903,-0.00014995,-2.673e-05,0.0,0 STARLINK-3755,1 52307U 22041AY  24018.94848140 -.00002673  00000-0 -14995-3 0  9990,2 52307  53.2181   4.0035 0001336  97.3241 262.7903 15.08827437 96649,6917.919,95.438,540.708,538.86,0.0
52307.0,STARLINK-3755,PAYLOAD,2024-01-19 03:31:57,15.08838717,0.0001372,53.2184,3.1127,100.3974,259.7173,3.0092e-05,1.91e-06,0.0,0 STARLINK-3755,1 52307U 22041AY  24019.14719634  .00000191  00000-0  30092-4 0  9996,2 52307  53.2184   3.1127 0001372 100.3974 259.7173 15.08838717 97887,6917.884,95.438,540.698,538.8,0.0
52307.0,STARLINK-3755,PAYLOAD,2024-01-19 05:07:20,15.08839717,0.0001298,53.2172,2.8148,89.0329,271.0812,5.3103e-05,5.57e-06,0.0,0 STARLINK-3755,1 52307U 22041AY  24019.21343383  .00000557  00000-0  53103-4 0  9992,2 52307  53.2172   2.8148 0001298  89.0329 271.0812 15.08839717 96682,6917.881,95.438,540.644,538.848,0.0
52307.0,STARLINK-3755,PAYLOAD,2024-01-19 22:36:36,15.08834185,0.0001305,53.217,359.544,82.5412,277.5729,0.00058279,8.998e-05,0.0,0 STARLINK-3755,1 52307U 22041AY  24019.94208595  .00008998  00000-0  58279-3 0  9992,2 52307  53.2170 359.5440 0001305  82.5412 277.5729 15.08834185 96791,6917.898,95.438,540.666,538.86,0.0
52307.0,STARLINK-3755,PAYLOAD,2024-01-20 03:22:45,15.08842898,0.0001366,53.2171,358.6519,78.9065,281.208,0.00064642,0.00010016,0.0,0 STARLINK-3755,1 52307U 22041AY  24020.14080518  .00010016  00000-0  64642-3 0  9994,2 52307  53.2171 358.6519 0001366  78.9065 281.2080 15.08842898 98030,6917.872,95.437,540.682,538.792,0.0
52307.0,STARLINK-3755,PAYLOAD,2024-01-20 08:08:54,15.08851505,0.0001467,53.2173,357.7578,86.6898,273.4262,0.00075795,0.00011799,0.0,0 STARLINK-3755,1 52307U 22041AY  24020.33952267  .00011799  00000-0  75795-3 0  9994,2 52307  53.2173 357.7578 0001467  86.6898 273.4262 15.08851505 96857,6917.845,95.437,540.725,538.695,0.0
52307.0,STARLINK-3755,PAYLOAD,2024-01-20 22:27:23,15.08838337,0.0001415,53.2163,355.0829,89.5596,270.5558,0.00013923,1.929e-05,0.0,0 STARLINK-3755,1 52307U 22041AY  24020.93568570  .00001929  00000-0  13923-3 0  9999,2 52307  53.2163 355.0829 0001415  89.5596 270.5558 15.08838337 96940,6917.885,95.438,540.729,538.772,0.0
52307.0,STARLINK-3755,PAYLOAD,2024-01-21 03:13:32,15.08845637,0.0001727,53.2169,354.1883,111.5896,248.5281,0.00034647,5.231e-05,0.0,0 STARLINK-3755,1 52307U 22041AY  24021.13440390  .00005231  00000-0  34647-3 0  9997,2 52307  53.2169 354.1883 0001727 111.5896 248.5281 15.08845637 98188,6917.863,95.437,540.923,538.533,0.0
